	<Item Mission="2"/>
	<Item SecretRank="0"/>
	<Item Apogee="3931.000000000000000"/>
	<Item SatIconName="1.png#1.png"/>
	<Item SatModelName="北斗导航试验卫星"/>
</SateliteInfo>
<SateliteInfo>
	<Item ID="195"/>
	<Item NAME="00195"/>
	<Item TLE="1 00195U 61028D   10108.22715541 -.00000003  00000-0  10000-3 0  7568 2 00195  95.8773  47.7310 0194353  42.6692 318.9082  8.65621817532513"/>
	<Item INCLINATION="95.877300000000005"/>
	<Item RAAN="47.731000000000002"/>
	<Item ECCENTRICITY="0.019435300000000"/>
	<Item PERIGEE="42.669199999999996"/>
	<Item MEAN_ANOMALY="318.908000000000020"/>
	<Item MEAN_MOTION="8.656219999999999"/>
	<Item Nation="7"/>
	<Item FlatType="1"/>
	<Item Mission="3"/>
	<Item SecretRank="0"/>
	<Item Apogee="3835.000000000000000"/>
	<Item SatIconName="1.png#1.png"/>
	<Item SatModelName="北斗导航试验卫星"/>
</SateliteInfo>
<SateliteInfo>
	<Item ID="196"/>
	<Item NAME="00196"/>
	<Item TLE="1 00196U 61018D   10108.03351283  .00000001  00000-0  10000-3 0  9576 2 00196  91.1928 300.1652 0113265 270.1814  88.6096  8.89664270583975"/>
	<Item INCLINATION="91.192800000000005"/>
	<Item RAAN="300.165000000000020"/>
	<Item ECCENTRICITY="0.011326500000000"/>
	<Item PERIGEE="270.180999999999980"/>
	<Item MEAN_ANOMALY="88.609600000000000"/>
	<Item MEAN_MOTION="8.896640000000000"/>
	<Item Nation="8"/>
	<Item FlatType="2"/>
	<Item Mission="4"/>
	<Item SecretRank="0"/>
	<Item Apogee="3571.000000000000000"/>
	<Item SatIconName="1.png#1.png"/>
	<Item SatModelName="北斗导航试验卫星"/>
</SateliteInfo>
<SateliteInfo>
	<Item ID="202"/>
	<Item NAME="00202"/>
	<Item TLE="1 00202U 61031A   10109.14587189  .00000045  00000-0  30292-4 0  5129 2 00202  32.4388  35.8669 0101049  34.8367 325.8825 13.63303246414943"/>
	<Item INCLINATION="32.438800000000001"/>
	<Item RAAN="35.866900000000001"/>
	<Item ECCENTRICITY="0.010104900000000"/>
	<Item PERIGEE="34.836700000000000"/>
	<Item MEAN_ANOMALY="325.882000000000010"/>
	<Item MEAN_MOTION="13.632999999999999"/>
	<Item Nation="1"/>
	<Item FlatType="1"/>
	<Item Mission="1"/>
	<Item SecretRank="0"/>
	<Item Apogee="1098.000000000000000"/>
	<Item SatIconName="1.png#1.png"/>
	<Item SatModelName="北斗导航试验卫星"/>
</SateliteInfo>
<SateliteInfo>
	<Item ID="204"/>
	<Item NAME="00204"/>
	<Item TLE="1 00204U 61031C   10108.38537708  .00000042  00000-0  25124-4 0  9486 2 00204  32.4416 161.5299 0098826  29.2784 331.3332 13.64689643416409"/>
	<Item INCLINATION="32.441600000000001"/>
	<Item RAAN="161.530000000000000"/>
	<Item ECCENTRICITY="0.009882600000000"/>
	<Item PERIGEE="29.278400000000001"/>
	<Item MEAN_ANOMALY="331.333000000000030"/>
	<Item MEAN_MOTION="13.646900000000000"/>
	<Item Nation="2"/>
	<Item FlatType="2"/>
	<Item Mission="2"/>
	<Item SecretRank="0"/>
	<Item Apogee="1091.000000000000000"/>
	<Item SatIconName="1.png#1.png"/>
	<Item SatModelName="北斗导航试验卫星"/>
</SateliteInfo>
<SateliteInfo>
	<Item ID="205"/>
	<Item NAME="00205"/>
	<Item TLE="1 00205U 61031B   10108.46057619  .00000062  00000-0  47174-4 0  3748 2 00205  32.4398 138.0560 0102239 236.9462 122.1312 13.62269685414009"/>
	<Item INCLINATION="32.439799999999998"/>
	<Item RAAN="138.056000000000010"/>
	<Item ECCENTRICITY="0.010223900000000"/>
	<Item PERIGEE="236.946000000000000"/>
	<Item MEAN_ANOMALY="122.131000000000000"/>
	<Item MEAN_MOTION="13.622700000000000"/>
	<Item Nation="3"/>
	<Item FlatType="1"/>
	<Item Mission="3"/>
	<Item SecretRank="0"/>
	<Item Apogee="1103.000000000000000"/>
	<Item SatIconName="1.png#1.png"/>
	<Item SatModelName="北斗导航试验卫星"/>
</SateliteInfo>
<SateliteInfo>
	<Item ID="210"/>
	<Item NAME="00210"/>
	<Item TLE="1 00210U 61015BE  10109.14451664  .00000101  00000-0  16115-3 0  9470 2 00210  66.4576  95.3822 0042233  34.3981 325.9790 13.83512584447886"/>
	<Item INCLINATION="66.457599999999999"/>
	<Item RAAN="95.382199999999997"/>
	<Item ECCENTRICITY="0.004223300000000"/>
	<Item PERIGEE="34.398099999999999"/>
	<Item MEAN_ANOMALY="325.978999999999980"/>
	<Item MEAN_MOTION="13.835100000000001"/>
	<Item Nation="4"/>
	<Item FlatType="2"/>
	<Item Mission="4"/>
	<Item SecretRank="0"/>
	<Item Apogee="982.000000000000000"/>
	<Item SatIconName="1.png#1.png"/>
	<Item SatModelName="北斗导航试验卫星"/>
</SateliteInfo>
<SateliteInfo>
	<Item ID="223"/>
	<Item NAME="00223"/>
	<Item TLE="1 00223U 61015BK  10107.54379809 -.00000046  00000-0  24118-4 0    86 2 00223  66.8899 232.3768 0073646 217.6367 141.9537 13.88317651471481"/>
	<Item INCLINATION="66.889899999999997"/>
	<Item RAAN="232.377000000000010"/>
	<Item ECCENTRICITY="0.007364600000000"/>
	<Item PERIGEE="217.637000000000000"/>
	<Item MEAN_ANOMALY="141.954000000000010"/>
	<Item MEAN_MOTION="13.883200000000000"/>
	<Item Nation="5"/>
	<Item FlatType="1"/>
	<Item Mission="1"/>
	<Item SecretRank="0"/>
	<Item Apogee="988.000000000000000"/>
	<Item SatIconName="1.png#1.png"/>
	<Item SatModelName="北斗导航试验卫星"/>
</SateliteInfo>
<SateliteInfo>
	<Item ID="224"/>
	<Item NAME="00224"/>
	<Item TLE="1 00224U 61015BL  10109.13440066  .00000078  00000-0  96093-4 0  8834 2 00224  66.7409 257.1387 0074550 236.0127 123.3844 14.04951875482033"/>
	<Item INCLINATION="66.740899999999996"/>
	<Item RAAN="257.139000000000010"/>
	<Item ECCENTRICITY="0.007455000000000"/>
	<Item PERIGEE="236.013000000000010"/>
	<Item MEAN_ANOMALY="123.384000000000000"/>
	<Item MEAN_MOTION="14.049500000000000"/>
	<Item Nation="6"/>
	<Item FlatType="2"/>
	<Item Mission="2"/>
	<Item SecretRank="0"/>
	<Item Apogee="930.000000000000000"/>
	<Item SatIconName="1.png#1.png"/>
	<Item SatModelName="北斗导航试验卫星"/>
</SateliteInfo>
<SateliteInfo>
	<Item ID="225"/>
	<Item NAME="00225"/>
	<Item TLE="1 00225U 61015BM  10109.21971243  .00000207  00000-0  11045-3 0  8567 2 00225  66.7971 179.9524 0121900 302.1875  56.7460 14.27225972513416"/>
	<Item INCLINATION="66.797100000000000"/>
	<Item RAAN="179.952000000000000"/>
	<Item ECCENTRICITY="0.012190000000000"/>
	<Item PERIGEE="302.187999999999990"/>
	<Item MEAN_ANOMALY="56.746000000000002"/>
	<Item MEAN_MOTION="14.272300000000000"/>
	<Item Nation="7"/>
	<Item FlatType="1"/>
	<Item Mission="3"/>
	<Item SecretRank="0"/>
	<Item Apogee="888.000000000000000"/>
	<Item SatIconName="1.png#1.png"/>
	<Item SatModelName="北斗导航试验卫星"/>
</SateliteInfo>
<SateliteInfo>
	<Item ID="226"/>
	<Item NAME="00226"/>
	<Item TLE="1 00226U 62002A   10109.09236781 -.00000130  00000-0  11961-4 0  2391 2 00226  48.2970  26.2872 0079302 102.7821 258.1944 14.44672547535281"/>
	<Item INCLINATION="48.296999999999997"/>
	<Item RAAN="26.287199999999999"/>
	<Item ECCENTRICITY="0.007930200000000"/>
	<Item PERIGEE="102.782000000000000"/>
	<Item MEAN_ANOMALY="258.194000000000020"/>
	<Item MEAN_MOTION="14.446700000000000"/>
	<Item Nation="8"/>
	<Item FlatType="2"/>
	<Item Mission="4"/>
	<Item SecretRank="0"/>
	<Item Apogee="799.000000000000000"/>
	<Item SatIconName="1.png#1.png"/>
	<Item SatModelName="北斗导航试验卫星"/>
</SateliteInfo>
<SateliteInfo>
	<Item ID="227"/>
	<Item NAME="00227"/>
	<Item TLE="1 00227U 62002B   10108.18131551 -.00000061  00000-0  33400-4 0  9369 2 00227  48.1504 132.6146 0135077 296.7680  61.9450 14.36590260515315"/>
	<Item INCLINATION="48.150399999999998"/>
	<Item RAAN="132.615000000000010"/>
	<Item ECCENTRICITY="0.013507700000000"/>
	<Item PERIGEE="296.767999999999970"/>
	<Item MEAN_ANOMALY="61.945000000000000"/>
	<Item MEAN_MOTION="14.365900000000000"/>
	<Item Nation="1"/>
	<Item FlatType="1"/>
	<Item Mission="1"/>
	<Item SecretRank="0"/>
	<Item Apogee="866.000000000000000"/>
	<Item SatIconName="1.png#1.png"/>
	<Item SatModelName="北斗导航试验卫星"/>
</SateliteInfo>
<SateliteInfo>
	<Item ID="228"/>
	<Item NAME="00228"/>
	<Item TLE="1 00228U 62002C   10108.84576336  .00000255  00000-0  50413-4 0  5887 2 00228  48.4325 270.1861 0018588 106.4398 253.8566 14.89965812579230"/>
	<Item INCLINATION="48.432499999999997"/>
	<Item RAAN="270.185999999999980"/>
	<Item ECCENTRICITY="0.001858800000000"/>
	<Item PERIGEE="106.440000000000000"/>
	<Item MEAN_ANOMALY="253.857000000000000"/>
	<Item MEAN_MOTION="14.899699999999999"/>
	<Item Nation="2"/>
	<Item FlatType="2"/>
	<Item Mission="2"/>
	<Item SecretRank="0"/>
	<Item Apogee="610.000000000000000"/>
	<Item SatIconName="1.png#1.png"/>
	<Item SatModelName="北斗导航试验卫星"/>
</SateliteInfo>
<SateliteInfo>
	<Item ID="230"/>
	<Item NAME="00230"/>
	<Item TLE="1 00230U 61015BN  10108.34343289 -.00000016  00000-0  43588-4 0  1772 2 00230  66.8867 142.6335 0088813 108.6936 252.3808 13.95532350482179"/>
	<Item INCLINATION="66.886700000000005"/>
	<Item RAAN="142.633000000000010"/>
	<Item ECCENTRICITY="0.008881300000000"/>
	<Item PERIGEE="108.694000000000000"/>
	<Item MEAN_ANOMALY="252.381000000000000"/>
	<Item MEAN_MOTION="13.955299999999999"/>
	<Item Nation="3"/>
	<Item FlatType="1"/>
	<Item Mission="3"/>
	<Item SecretRank="0"/>
	<Item Apogee="973.000000000000000"/>
	<Item SatIconName="1.png#1.png"/>
	<Item SatModelName="北斗导航试验卫星"/>
</SateliteInfo>
<SateliteInfo>
	<Item ID="232"/>
	<Item NAME="00232"/>
	<Item TLE="1 00232U 61015BQ  10108.90486322 -.00000030  00000-0  33333-4 0  3250 2 00232  66.8170  56.8581 0061179 340.5443  19.3297 13.98046283481645"/>
	<Item INCLINATION="66.816999999999993"/>
	<Item RAAN="56.858100000000000"/>
	<Item ECCENTRICITY="0.006117900000000"/>
	<Item PERIGEE="340.543999999999980"/>
	<Item MEAN_ANOMALY="19.329699999999999"/>
	<Item MEAN_MOTION="13.980499999999999"/>
	<Item Nation="4"/>
	<Item FlatType="2"/>
	<Item Mission="4"/>
	<Item SecretRank="0"/>
	<Item Apogee="944.000000000000000"/>
	<Item SatIconName="1.png#1.png"/>
	<Item SatModelName="北斗导航试验卫星"/>
</SateliteInfo>
<SateliteInfo>
	<Item ID="233"/>
	<Item NAME="00233"/>
	<Item TLE="1 00233U 61015BR  10108.18414276  .00000618  00000-0  19510-3 0  1462 2 00233  66.8561 140.0099 0029299  92.0117 268.4323 14.46464930516423"/>
	<Item INCLINATION="66.856099999999998"/>
